start=new Date('2022-06-17T00:00:00.000Z').valueOf();
sats=[{"DECAY_DATE":null,"ELEMENT_SET_NO":"999","TLE_LINE1":"1 47748U 21017AC  22166.82935433 -.00000098  00000-0  12359-4 0  9997","LAUNCH_DATE":"2021-03-04","TIME_SYSTEM":"UTC","CLASSIFICATION_TYPE":"U","OBJECT_NAME":"STARLINK-2162","CENTER_NAME":"EARTH","SEMIMAJOR_AXIS":"6925.374","RA_OF_ASC_NODE":"199.7373","INCLINATION":"53.0533","REV_AT_EPOCH":"7245","MEAN_MOTION_DOT":"-0.00000098","RCS_SIZE":"LARGE","SITE":"AFETR","TLE_LINE2":"2 47748  53.0533 199.7373 0001873  48.8694 311.2456 15.06391836 72450","ECCENTRICITY":"0.00018730","MEAN_MOTION_DDOT":"0.0000000000000","REF_FRAME":"TEME","OBJECT_TYPE":"PAYLOAD","PERIAPSIS":"545.941","OBJECT_ID":"2021-017AC","GP_ID":"206236912","ARG_OF_PERICENTER":"48.8694","MEAN_ANOMALY":"311.2456","MEAN_ELEMENT_THEORY":"SGP4","EPHEMERIS_TYPE":"0","NORAD_CAT_ID":"47748","COUNTRY_CODE":"US","FILE":"3496999","APOAPSIS":"548.536","BSTAR":"0.00001235900000","EPOCH":"2022-06-15T19:54:16.214112","PERIOD":"95.593","MEAN_MOTION":"15.06391836"},{"MEAN_MOTION":"15.06390183","COUNTRY_CODE":"US","APOAPSIS":"548.256","FILE":"3496794","BSTAR":"-0.00007074900000","EPOCH":"2022-06-15T09:06:44.033184","PERIOD":"95.593","REF_FRAME":"TEME","OBJECT_TYPE":"PAYLOAD","PERIAPSIS":"546.231","OBJECT_ID":"2021-017AD","GP_ID":"206207969","MEAN_ELEMENT_THEORY":"SGP4","MEAN_ANOMALY":"303.9825","ARG_OF_PERICENTER":"56.1303","EPHEMERIS_TYPE":"0","NORAD_CAT_ID":"47749","TLE_LINE2":"2 47749  53.0543 201.7600 0001462  56.1303 303.9825 15.06390183 72386","ECCENTRICITY":"0.00014620","MEAN_MOTION_DDOT":"0.0000000000000","RCS_SIZE":"MEDIUM","SITE":"AFETR","RA_OF_ASC_NODE":"201.7600","INCLINATION":"53.0543","REV_AT_EPOCH":"7238","MEAN_MOTION_DOT":"-0.00001335","CLASSIFICATION_TYPE":"U","OBJECT_NAME":"STARLINK-2163","CENTER_NAME":"EARTH","SEMIMAJOR_AXIS":"6925.379","DECAY_DATE":null,"ELEMENT_SET_NO":"999","TLE_LINE1":"1 47749U 21017AD  22166.37967631 -.00001335  00000-0 -70749-4 0  9996","TIME_SYSTEM":"UTC","LAUNCH_DATE":"2021-03-04"},{"INCLINATION":"53.0525","RA_OF_ASC_NODE":"199.7765","MEAN_MOTION_DOT":"0.00000953","REV_AT_EPOCH":"7182","RCS_SIZE":"LARGE","SITE":"AFETR","DECAY_DATE":null,"ELEMENT_SET_NO":"999","TIME_SYSTEM":"UTC","LAUNCH_DATE":"2021-03-04","TLE_LINE1":"1 47750U 21017AE  22166.82197165  .00000953  00000-0  82864-4 0  9999","OBJECT_NAME":"STARLINK-2164","CLASSIFICATION_TYPE":"U","SEMIMAJOR_AXIS":"6925.328","CENTER_NAME":"EARTH","COUNTRY_CODE":"US","FILE":"3496886","APOAPSIS":"548.477","EPOCH":"2022-06-15T19:43:38.350560","PERIOD":"95.592","BSTAR":"0.00008286400000","MEAN_MOTION":"15.06406795","TLE_LINE2":"2 47750  53.0525 199.7765 0001854  53.5124 306.6035 15.06406795 71821","MEAN_MOTION_DDOT":"0.0000000000000","ECCENTRICITY":"0.00018540","OBJECT_ID":"2021-017AE","PERIAPSIS":"545.909","GP_ID":"206212589","REF_FRAME":"TEME","OBJECT_TYPE":"PAYLOAD","EPHEMERIS_TYPE":"0","NORAD_CAT_ID":"47750","ARG_OF_PERICENTER":"53.5124","MEAN_ANOMALY":"306.6035","MEAN_ELEMENT_THEORY":"SGP4"},{"SITE":"AFETR","RCS_SIZE":"MEDIUM","REV_AT_EPOCH":"7259","MEAN_MOTION_DOT":"0.00000399","RA_OF_ASC_NODE":"189.9224","INCLINATION":"53.0539","CENTER_NAME":"EARTH","SEMIMAJOR_AXIS":"6925.371","CLASSIFICATION_TYPE":"U","OBJECT_NAME":"STARLINK-2168","TLE_LINE1":"1 47751U 21017AF  22166.78605137  .00000399  00000-0  45715-4 0  9996","LAUNCH_DATE":"2021-03-04","TIME_SYSTEM":"UTC","ELEMENT_SET_NO":"999","DECAY_DATE":null,"MEAN_MOTION":"15.06392699","BSTAR":"0.00004571500000","PERIOD":"95.593","EPOCH":"2022-06-15T18:51:54.838368","FILE":"3496999","APOAPSIS":"548.683","COUNTRY_CODE":"US","MEAN_ANOMALY":"313.0976","ARG_OF_PERICENTER":"47.0188","MEAN_ELEMENT_THEORY":"SGP4","NORAD_CAT_ID":"47751","EPHEMERIS_TYPE":"0","OBJECT_TYPE":"PAYLOAD","REF_FRAME":"TEME","GP_ID":"206236163","PERIAPSIS":"545.789","OBJECT_ID":"2021-017AF","ECCENTRICITY":"0.00020890","MEAN_MOTION_DDOT":"0.0000000000000","TLE_LINE2":"2 47751  53.0539 189.9224 0002089  47.0188 313.0976 15.06392699 72595"},{"OBJECT_NAME":"STARLINK-2169","CLASSIFICATION_TYPE":"U","SEMIMAJOR_AXIS":"6925.362","CENTER_NAME":"EARTH","DECAY_DATE":null,"ELEMENT_SET_NO":"999","LAUNCH_DATE":"2021-03-04","TIME_SYSTEM":"UTC","TLE_LINE1":"1 47752U 21017AG  22166.81968221 -.00001372  00000-0 -73248-4 0  9993","RCS_SIZE":"MEDIUM","SITE":"AFETR","INCLINATION":"53.0538","RA_OF_ASC_NODE":"204.7840","MEAN_MOTION_DOT":"-0.00001372","REV_AT_EPOCH":"7243","OBJECT_ID":"2021-017AG","PERIAPSIS":"545.995","GP_ID":"206236413","REF_FRAME":"TEME","OBJECT_TYPE":"PAYLOAD","EPHEMERIS_TYPE":"0","NORAD_CAT_ID":"47752","ARG_OF_PERICENTER":"58.4978","MEAN_ANOMALY":"301.6184","MEAN_ELEMENT_THEORY":"SGP4","TLE_LINE2":"2 47752  53.0538 204.7840 0001778  58.4978 301.6184 15.06395728 72435","MEAN_MOTION_DDOT":"0.0000000000000","ECCENTRICITY":"0.00017780","MEAN_MOTION":"15.06395728","COUNTRY_CODE":"US","FILE":"3496999","APOAPSIS":"548.458","EPOCH":"2022-06-15T19:40:20.542944","PERIOD":"95.592","BSTAR":"-0.00007324800000"},{"ECCENTRICITY":"0.00015960","MEAN_MOTION_DDOT":"0.0000000000000","TLE_LINE2":"2 47753  53.0540 211.6864 0001596  67.6141 292.5017 15.06398727 72293","MEAN_ANOMALY":"292.5017","ARG_OF_PERICENTER":"67.6141","MEAN_ELEMENT_THEORY":"SGP4","EPHEMERIS_TYPE":"0","NORAD_CAT_ID":"47753","REF_FRAME":"TEME","OBJECT_TYPE":"PAYLOAD","PERIAPSIS":"546.112","OBJECT_ID":"2021-017AH","GP_ID":"206207469","BSTAR":"-0.00002508600000","EPOCH":"2022-06-15T09:31:55.686720","PERIOD":"95.592","COUNTRY_CODE":"US","FILE":"3496794","APOAPSIS":"548.323","MEAN_MOTION":"15.06398727","TLE_LINE1":"1 47753U 21017AH  22166.39717230 -.00000655  00000-0 -25086-4 0  9999","TIME_SYSTEM":"UTC","LAUNCH_DATE":"2021-03-04","DECAY_DATE":null,"ELEMENT_SET_NO":"999","CENTER_NAME":"EARTH","SEMIMAJOR_AXIS":"6925.352","CLASSIFICATION_TYPE":"U","OBJECT_NAME":"STARLINK-2170","MEAN_MOTION_DOT":"-0.00000655","REV_AT_EPOCH":"7229","RA_OF_ASC_NODE":"211.6864","INCLINATION":"53.0540","SITE":"AFETR","RCS_SIZE":"LARGE"},{"TIME_SYSTEM":"UTC","LAUNCH_DATE":"2021-03-04","TLE_LINE1":"1 47754U 21017AJ  22166.83212797 -.00000612  00000-0 -22200-4 0  9995","ELEMENT_SET_NO":"999","DECAY_DATE":null,"SEMIMAJOR_AXIS":"6925.389","CENTER_NAME":"EARTH","OBJECT_NAME":"STARLINK-2171","CLASSIFICATION_TYPE":"U","REV_AT_EPOCH":"7232","MEAN_MOTION_DOT":"-0.00000612","INCLINATION":"53.0543","RA_OF_ASC_NODE":"209.7391","SITE":"AFETR","RCS_SIZE":"LARGE","MEAN_MOTION_DDOT":"0.0000000000000","ECCENTRICITY":"0.00016230","TLE_LINE2":"2 47754  53.0543 209.7391 0001623  50.7029 309.4103 15.06386963 72326","NORAD_CAT_ID":"47754","EPHEMERIS_TYPE":"0","MEAN_ANOMALY":"309.4103","ARG_OF_PERICENTER":"50.7029","MEAN_ELEMENT_THEORY":"SGP4","GP_ID":"206237915","PERIAPSIS":"546.130","OBJECT_ID":"2021-017AJ","OBJECT_TYPE":"PAYLOAD","REF_FRAME":"TEME","PERIOD":"95.593","EPOCH":"2022-06-15T19:58:15.856608","BSTAR":"-0.00002220000000","APOAPSIS":"548.378","FILE":"3496999","COUNTRY_CODE":"US","MEAN_MOTION":"15.06386963"},{"RCS_SIZE":"LARGE","SITE":"AFETR","INCLINATION":"53.0542","RA_OF_ASC_NODE":"209.7503","REV_AT_EPOCH":"7236","MEAN_MOTION_DOT":"-0.00000606","OBJECT_NAME":"STARLINK-2174","CLASSIFICATION_TYPE":"U","SEMIMAJOR_AXIS":"6925.371","CENTER_NAME":"EARTH","DECAY_DATE":null,"ELEMENT_SET_NO":"999","LAUNCH_DATE":"2021-03-04","TIME_SYSTEM":"UTC","TLE_LINE1":"1 47756U 21017AL  22166.82843742 -.00000606  00000-0 -21800-4 0  9994","MEAN_MOTION":"15.06392708","COUNTRY_CODE":"US","FILE":"3496999","APOAPSIS":"548.443","EPOCH":"2022-06-15T19:52:56.993088","PERIOD":"95.593","BSTAR":"-0.00002180000000","OBJECT_ID":"2021-017AL","PERIAPSIS":"546.029","GP_ID":"206236663","REF_FRAME":"TEME","OBJECT_TYPE":"PAYLOAD","EPHEMERIS_TYPE":"0","NORAD_CAT_ID":"47756","MEAN_ANOMALY":"300.2486","ARG_OF_PERICENTER":"59.8676","MEAN_ELEMENT_THEORY":"SGP4","TLE_LINE2":"2 47756  53.0542 209.7503 0001743  59.8676 300.2486 15.06392708 72364","MEAN_MOTION_DDOT":"0.0000000000000","ECCENTRICITY":"0.00017430"},{"NORAD_CAT_ID":"47757","EPHEMERIS_TYPE":"0","MEAN_ANOMALY":"309.5737","ARG_OF_PERICENTER":"50.5403","MEAN_ELEMENT_THEORY":"SGP4","GP_ID":"206236913","PERIAPSIS":"546.027","OBJECT_ID":"2021-017AM","OBJECT_TYPE":"PAYLOAD","REF_FRAME":"TEME","MEAN_MOTION_DDOT":"0.0000000000000","ECCENTRICITY":"0.00017120","TLE_LINE2":"2 47757  53.0525 209.8157 0001712  50.5403 309.5737 15.06400311 72309","MEAN_MOTION":"15.06400311","PERIOD":"95.592","EPOCH":"2022-06-15T19:31:42.292416","BSTAR":"-0.00003050300000","FILE":"3496999","APOAPSIS":"548.398","COUNTRY_CODE":"US","SEMIMAJOR_AXIS":"6925.348","CENTER_NAME":"EARTH","OBJECT_NAME":"STARLINK-2175","CLASSIFICATION_TYPE":"U","TIME_SYSTEM":"UTC","LAUNCH_DATE":"2021-03-04","TLE_LINE1":"1 47757U 21017AM  22166.81368394 -.00000736  00000-0 -30503-4 0  9993","ELEMENT_SET_NO":"999","DECAY_DATE":null,"SITE":"AFETR","RCS_SIZE":"LARGE","MEAN_MOTION_DOT":"-0.00000736","REV_AT_EPOCH":"7230","INCLINATION":"53.0525","RA_OF_ASC_NODE":"209.8157"},{"MEAN_ANOMALY":"310.9199","ARG_OF_PERICENTER":"49.1946","MEAN_ELEMENT_THEORY":"SGP4","EPHEMERIS_TYPE":"0","NORAD_CAT_ID":"47760","REF_FRAME":"TEME","OBJECT_TYPE":"PAYLOAD","OBJECT_ID":"2021-017AQ","PERIAPSIS":"546.013","GP_ID":"206213115","ECCENTRICITY":"0.00018040","MEAN_MOTION_DDOT":"0.0000000000000","TLE_LINE2":"2 47760  53.0552 219.6707 0001804  49.1946 310.9199 15.06384241 71547","MEAN_MOTION":"15.06384241","BSTAR":"-0.00012633000000","EPOCH":"2022-06-15T20:18:10.418688","PERIOD":"95.593","COUNTRY_CODE":"US","FILE":"3496887","APOAPSIS":"548.511","CENTER_NAME":"EARTH","SEMIMAJOR_AXIS":"6925.397","CLASSIFICATION_TYPE":"U","OBJECT_NAME":"STARLINK-2178","TLE_LINE1":"1 47760U 21017AQ  22166.84595392 -.00002162  00000-0 -12633-3 0  9998","LAUNCH_DATE":"2021-03-04","TIME_SYSTEM":"UTC","DECAY_DATE":null,"ELEMENT_SET_NO":"999","SITE":"AFETR","RCS_SIZE":"LARGE","REV_AT_EPOCH":"7154","MEAN_MOTION_DOT":"-0.00002162","RA_OF_ASC_NODE":"219.6707","INCLINATION":"53.0552"}];
